{
  "type": "FeatureCollection",
  "features": [
    {
      "type": "Feature",
      "properties": {
        "norad_id": 35902,
        "name": "COSMOS 2251 DEB",
        "group": "cosmos-2251-debris",
        "lat": 27.19885633226125,
        "lon": -114.82374055401546,
        "alt_km": 741.7867491950155,
        "timestamp": "2025-12-11T13:55:02.563177+00:00",
        "meta_object_name": "COSMOS 2251 DEB",
        "meta_object_id": "1993-036AUR",
        "meta_epoch": "2025-12-10T09:10:56.598528",
        "meta_mean_motion": 14.26883589,
        "meta_eccentricity": 0.01019996,
        "meta_inclination": 73.9827,
        "meta_ra_of_asc_node": 238.8593,
        "meta_arg_of_pericenter": 354.0936,
        "meta_mean_anomaly": 5.8999,
        "meta_ephemeris_type": 0,
        "meta_classification_type": "U",
        "meta_norad_cat_id": 35902,
        "meta_element_set_no": 999,
        "meta_rev_at_epoch": 61096,
        "meta_bstar": 0.0017323625,
        "meta_mean_motion_dot": 4.42e-05,
        "meta_mean_motion_ddot": 0,
        "tle_line1": "1 35902U 93036AUR 25344.38259952  .00004420  00000+0  17324-2 0  9999",
        "tle_line2": "2 35902  73.9827 238.8593 0101999 354.0936   5.8999 14.26883589610960"
      },
      "geometry": {
        "type": "Point",
        "coordinates": [
          -114.82374055401546,
          27.19885633226125
        ]
      }
    },
    {
      "type": "Feature",
      "properties": {
        "norad_id": 35905,
        "name": "COSMOS 2251 DEB",
        "group": "cosmos-2251-debris",
        "lat": 38.835062984352106,
        "lon": -133.50467494091984,
        "alt_km": 584.9952530119426,
        "timestamp": "2025-12-11T13:55:02.563187+00:00",
        "meta_object_name": "COSMOS 2251 DEB",
        "meta_object_id": "1993-036AUU",
        "meta_epoch": "2025-12-10T21:43:08.354784",
        "meta_mean_motion": 14.98979266,
        "meta_eccentricity": 0.0090796,
        "meta_inclination": 74.0316,
        "meta_ra_of_asc_node": 214.5374,
        "meta_arg_of_pericenter": 295.0464,
        "meta_mean_anomaly": 64.1316,
        "meta_ephemeris_type": 0,
        "meta_classification_type": "U",
        "meta_norad_cat_id": 35905,
        "meta_element_set_no": 999,
        "meta_rev_at_epoch": 88555,
        "meta_bstar": 0.0008013,
        "meta_mean_motion_dot": 0.0001055,
        "meta_mean_motion_ddot": 0,
        "tle_line1": "1 35905U 93036AUU 25344.90495781  .00010550  00000+0  80130-3 0  9999",
        "tle_line2": "2 35905  74.0316 214.5374 0090796 295.0464  64.1316 14.98979266885555"
      },
      "geometry": {
        "type": "Point",
        "coordinates": [
          -133.50467494091984,
          38.835062984352106
        ]
      }
    },
    {
      "type": "Feature",
      "properties": {
        "norad_id": 35959,
        "name": "COSMOS 2251 DEB",
        "group": "cosmos-2251-debris",
        "lat": 72.39181397299666,
        "lon": 18.628859670645124,
        "alt_km": 760.2204509012472,
        "timestamp": "2025-12-11T13:55:02.563197+00:00",
        "meta_object_name": "COSMOS 2251 DEB",
        "meta_object_id": "1993-036AUZ",
        "meta_epoch": "2025-12-10T15:46:18.097824",
        "meta_mean_motion": 14.34133679,
        "meta_eccentricity": 0.00214667,
        "meta_inclination": 74.0324,
        "meta_ra_of_asc_node": 315.8763,
        "meta_arg_of_pericenter": 36.9874,
        "meta_mean_anomaly": 323.2753,
        "meta_ephemeris_type": 0,
        "meta_classification_type": "U",
        "meta_norad_cat_id": 35959,
        "meta_element_set_no": 999,
        "meta_rev_at_epoch": 84898,
        "meta_bstar": 0.00020861744,
        "meta_mean_motion_dot": 5.59e-06,
        "meta_mean_motion_ddot": 0,
        "tle_line1": "1 35959U 93036AUZ 25344.65715391  .00000559  00000+0  20862-3 0  9996",
        "tle_line2": "2 35959  74.0324 315.8763 0021466  36.9874 323.2753 14.34133679848985"
      },
      "geometry": {
        "type": "Point",
        "coordinates": [
          18.628859670645124,
          72.39181397299666
        ]
      }
    },
    {
      "type": "Feature",
      "properties": {
        "norad_id": 35961,
        "name": "COSMOS 2251 DEB",
        "group": "cosmos-2251-debris",
        "lat": 44.2521844585564,
        "lon": 9.90400038617435,
        "alt_km": 732.6882818600488,
        "timestamp": "2025-12-11T13:55:02.563207+00:00",
        "meta_object_name": "COSMOS 2251 DEB",
        "meta_object_id": "1993-036AVB",
        "meta_epoch": "2025-12-10T23:37:24.346848",
        "meta_mean_motion": 14.05375744,
        "meta_eccentricity": 0.01920198,
        "meta_inclination": 73.9249,
        "meta_ra_of_asc_node": 207.266,
        "meta_arg_of_pericenter": 141.11,
        "meta_mean_anomaly": 220.4034,
        "meta_ephemeris_type": 0,
        "meta_classification_type": "U",
        "meta_norad_cat_id": 35961,
        "meta_element_set_no": 999,
        "meta_rev_at_epoch": 62657,
        "meta_bstar": 0.0011581762,
        "meta_mean_motion_dot": 2.192e-05,
        "meta_mean_motion_ddot": 0,
        "tle_line1": "1 35961U 93036AVB 25344.98430957  .00002192  00000+0  11582-2 0  9990",
        "tle_line2": "2 35961  73.9249 207.2660 0192019 141.1100 220.4034 14.05375744626574"
      },
      "geometry": {
        "type": "Point",
        "coordinates": [
          9.90400038617435,
          44.2521844585564
        ]
      }
    },
    {
      "type": "Feature",
      "properties": {
        "norad_id": 35979,
        "name": "COSMOS 2251 DEB",
        "group": "cosmos-2251-debris",
        "lat": 73.53047425856177,
        "lon": -15.255262579774923,
        "alt_km": 632.2096184396842,
        "timestamp": "2025-12-11T13:55:02.563217+00:00",
        "meta_object_name": "COSMOS 2251 DEB",
        "meta_object_id": "1993-036AVV",
        "meta_epoch": "2025-12-09T11:50:03.223968",
        "meta_mean_motion": 14.74576302,
        "meta_eccentricity": 0.00588204,
        "meta_inclination": 74.0104,
        "meta_ra_of_asc_node": 244.7352,
        "meta_arg_of_pericenter": 17.6471,
        "meta_mean_anomaly": 162.3797,
        "meta_ephemeris_type": 0,
        "meta_classification_type": "U",
        "meta_norad_cat_id": 35979,
        "meta_element_set_no": 999,
        "meta_rev_at_epoch": 88585,
        "meta_bstar": 0.0014101379,
        "meta_mean_motion_dot": 9.639e-05,
        "meta_mean_motion_ddot": 0,
        "tle_line1": "1 35979U 93036AVV 25343.49309287  .00009639  00000+0  14101-2 0  9998",
        "tle_line2": "2 35979  74.0104 244.7352 0058820  17.6471 162.3797 14.74576302885855"
      },
      "geometry": {
        "type": "Point",
        "coordinates": [
          -15.255262579774923,
          73.53047425856177
        ]
      }
    },
    {
      "type": "Feature",
      "properties": {
        "norad_id": 35980,
        "name": "COSMOS 2251 DEB",
        "group": "cosmos-2251-debris",
        "lat": 33.771702361396436,
        "lon": 136.04425621465256,
        "alt_km": 720.6831217748977,
        "timestamp": "2025-12-11T13:55:02.563227+00:00",
        "meta_object_name": "COSMOS 2251 DEB",
        "meta_object_id": "1993-036AVW",
        "meta_epoch": "2025-12-02T19:08:08.015136",
        "meta_mean_motion": 14.59062146,
        "meta_eccentricity": 0.00537712,
        "meta_inclination": 73.91,
        "meta_ra_of_asc_node": 141.7735,
        "meta_arg_of_pericenter": 277.5645,
        "meta_mean_anomaly": 81.9413,
        "meta_ephemeris_type": 0,
        "meta_classification_type": "U",
        "meta_norad_cat_id": 35980,
        "meta_element_set_no": 999,
        "meta_rev_at_epoch": 61341,
        "meta_bstar": 0.002036555,
        "meta_mean_motion_dot": 9.752e-05,
        "meta_mean_motion_ddot": 0,
        "tle_line1": "1 35980U 93036AVW 25336.79731499  .00009752  00000+0  20366-2 0  9995",
        "tle_line2": "2 35980  73.9100 141.7735 0053771 277.5645  81.9413 14.59062146613413"
      },
      "geometry": {
        "type": "Point",
        "coordinates": [
          136.04425621465256,
          33.771702361396436
        ]
      }
    },
    {
      "type": "Feature",
      "properties": {
        "norad_id": 35982,
        "name": "COSMOS 2251 DEB",
        "group": "cosmos-2251-debris",
        "lat": -52.43444007118721,
        "lon": -32.66539755402771,
        "alt_km": 707.166330703646,
        "timestamp": "2025-12-11T13:55:02.563237+00:00",
        "meta_object_name": "COSMOS 2251 DEB",
        "meta_object_id": "1993-036AVY",
        "meta_epoch": "2025-12-10T10:15:57.560256",
        "meta_mean_motion": 14.62729028,
        "meta_eccentricity": 0.00640782,
        "meta_inclination": 74.0584,
        "meta_ra_of_asc_node": 351.3546,
        "meta_arg_of_pericenter": 58.3661,
        "meta_mean_anomaly": 302.3736,
        "meta_ephemeris_type": 0,
        "meta_classification_type": "U",
        "meta_norad_cat_id": 35982,
        "meta_element_set_no": 999,
        "meta_rev_at_epoch": 86132,
        "meta_bstar": 0.00082067194,
        "meta_mean_motion_dot": 4.278e-05,
        "meta_mean_motion_ddot": 0,
        "tle_line1": "1 35982U 93036AVY 25344.42774954  .00004278  00000+0  82067-3 0  9994",
        "tle_line2": "2 35982  74.0584 351.3546 0064078  58.3661 302.3736 14.62729028861323"
      },
      "geometry": {
        "type": "Point",
        "coordinates": [
          -32.66539755402771,
          -52.43444007118721
        ]
      }
    }
  ]
}